COSMOS 1933             
1 18958U 88020A   25356.64615560  .00004117  00000+0  20574-3 0  9996
2 18958  82.5141 327.0895 0006230 102.0505 258.1427 15.17186968 38543
SL-3 R/B                
1 19046U 88032B   25356.94176841  .00005451  00000+0  26246-3 0  9999
2 19046  97.5091 335.5921 0027768 138.2731 222.0628 15.18838124 40452
SL-16 R/B               
1 19120U 88039B   25356.89375569  .00000127  00000+0  82534-4 0  9999
2 19120  71.0131 230.9291 0019548  98.8969 261.4370 14.19599199947482
COSMOS 1953             
1 19210U 88050A   25351.75027580  .00004793  00000+0  17925-3 0  9993
2 19210  82.5093 240.5536 0013540  56.0210 304.2313 15.26995692 25270
SL-8 R/B                
1 19257U 88053B   25356.95968097  .00000265  00000+0  94421-4 0  9998
2 19257  74.0471 253.8846 0018944  94.1596 277.1261 14.38865241965564
COSMOS 1975             
1 19573U 88093A   25356.94107366  .00006834  00000+0  25921-3 0  9992
2 19573  82.5188 194.6152 0013019  80.7187 279.5524 15.26603915  7696
SL-14 R/B               
1 19574U 88093B   25356.83148439  .00000496  00000+0  54471-4 0  9998
2 19574  82.5314 114.1972 0019308 294.1463 235.1089 14.85559327989627
SL-16 R/B               
1 19650U 88102B   25356.84189847  .00000227  00000+0  13854-3 0  9994
2 19650  71.0005 313.1868 0012470 134.5310 225.6834 14.16141139916015
INTERCOSMOS 24          
1 20261U 89080A   25356.83382113  .00000671  00000+0  18843-3 0  9996
2 20261  82.6052 154.3902 1188990 111.1142 262.1061 12.59455704657128
SL-14 R/B               
1 20262U 89080C   25356.90495758  .00000349  00000+0  10142-3 0  9991
2 20262  82.5917 222.4952 1230480   0.3598 359.8109 12.50421366650551
DELTA 1 R/B             
1 20323U 89089B   25356.84869289  .00000306  00000+0  84478-4 0  9992
2 20323  97.0744 211.4837 0069320   6.6687 353.5417 14.50579847884594
ARIANE 40 R/B           
1 20443U 90005H   25356.39893486  .00000280  00000+0  10285-3 0  9996
2 20443  98.3229  54.3034 0011235  79.6523 280.5932 14.39805412881688
